{
"type": "FeatureCollection",
"name": "Basin_States",
"crs": { "type": "name", "properties": { "name": "urn:ogc:def:crs:OGC:1.3:CRS84" } },
"features": [
{ "type": "Feature", "properties": { "STATEFP": "35", "STATENS": "00897535", "AFFGEOID": "0400000US35", "GEOID": "35", "STUSPS": "NM", "NAME": "New Mexico", "LSAD": "00", "ALAND": 314196306401, "AWATER": 728776523 }, "geometry": { "type": "MultiPolygon", "coordinates": [ [ [ [ -109.049195, 31.796551 ], [ -109.048296, 32.084093 ], [ -109.047612, 32.426377 ], [ -109.047117, 32.77757 ], [ -109.047117062309994, 32.777794000947701 ], [ -109.047236980537008, 33.208895031550796 ], [ -109.047237, 33.208965 ], [ -109.047298, 33.409783 ], [ -109.046607473922009, 33.778223800350496 ], [ -109.046426, 33.875052 ], [ -109.046182, 34.522393 ], [ -109.046138935363004, 34.579291012817897 ], [ -109.045851, 34.959718 ], [ -109.045851235182994, 34.959818515836702 ], [ -109.046355894384007, 35.175507188351197 ], [ -109.046796, 35.363606 ], [ -109.046296, 35.614251 ], [ -109.046024, 35.8798 ], [ -109.045871168204997, 36.002701630519006 ], [ -109.045729, 36.117028 ], [ -109.045433, 36.874589 ], [ -109.045223, 36.999084 ], [ -108.620309, 36.999287 ], [ -108.379302950094001, 36.999564686311501 ], [ -108.000623, 37.000001 ], [ -107.481736999155004, 37.000004580314297 ], [ -107.420913, 37.000005 ], [ -106.877292, 37.000139 ], [ -106.869796, 36.992426 ], [ -106.476233588828009, 36.993774100546894 ], [ -106.343139, 36.99423 ], [ -106.006316410798007, 36.995386628817293 ], [ -105.997472, 36.995417 ], [ -105.718469683991003, 36.995845927301005 ], [ -105.716471, 36.995849 ], [ -105.533922, 36.995875 ], [ -105.41931, 36.995856 ], [ -105.251296, 36.995605 ], [ -105.220505200781005, 36.995563236486497 ], [ -105.155042748048004, 36.995474445610604 ], [ -105.1208, 36.995428 ], [ -104.732031, 36.993447 ], [ -104.338833, 36.993535 ], [ -104.007849409613002, 36.995984094709101 ], [ -103.733247, 36.998016 ], [ -103.086101075631007, 36.999864361106397 ], [ -103.002199, 37.000104 ], [ -103.001964, 36.909573 ], [ -103.002518, 36.675186 ], [ -103.002188, 36.602716 ], [ -103.002434, 36.500397 ], [ -103.041924, 36.500439 ], [ -103.040824, 36.055231 ], [ -103.041356721818005, 35.739433506348696 ], [ -103.041554, 35.622487 ], [ -103.042617950565003, 35.183157259008404 ], [ -103.042711, 35.144735 ], [ -103.042738818608015, 34.954142040361397 ], [ -103.042769, 34.747361 ], [ -103.043072, 34.619782 ], [ -103.043946, 34.379555 ], [ -103.043850301172, 34.312749873507897 ], [ -103.043835830165008, 34.302648 ], [ -103.043563920791016, 34.112834389755399 ], [ -103.043516, 34.079382 ], [ -103.047346, 33.824675 ], [ -103.05261, 33.570599 ], [ -103.052610516564002, 33.5705747764422 ], [ -103.056495064338009, 33.388414214620596 ], [ -103.060103, 33.219225 ], [ -103.063468888475001, 32.959106381830502 ], [ -103.064889, 32.849359 ], [ -103.064761, 32.587983 ], [ -103.064696, 32.522193 ], [ -103.064422, 32.145006 ], [ -103.064422401106, 32.087051 ], [ -103.064423, 32.000518 ], [ -103.326501, 32.00037 ], [ -103.722881979148013, 32.000165568676394 ], [ -103.980213477381014, 32.000032851362597 ], [ -104.024521, 32.00001 ], [ -104.643526, 32.000443 ], [ -104.84774, 32.000464602835002 ], [ -104.918356994280003, 32.000472073073503 ], [ -105.153994, 32.000497 ], [ -105.750527, 32.002206 ], [ -105.997971151664004, 32.001974590699 ], [ -106.200699, 32.001785 ], [ -106.377173188246999, 32.001240101037496 ], [ -106.618486, 32.000495 ], [ -106.630114, 31.971258 ], [ -106.623445, 31.914034 ], [ -106.63588, 31.871514 ], [ -106.581344, 31.813906 ], [ -106.528242, 31.783148 ], [ -106.531731, 31.78391 ], [ -106.993544, 31.783689 ], [ -107.296792990414005, 31.783625337107999 ], [ -107.422246, 31.783599 ], [ -108.208394, 31.783599 ], [ -108.208572, 31.499742 ], [ -108.208573, 31.333395 ], [ -108.707657, 31.333191 ], [ -108.861028, 31.332315 ], [ -109.050044, 31.332502 ], [ -109.049195, 31.796551 ] ] ] ] } },
{ "type": "Feature", "properties": { "STATEFP": "06", "STATENS": "01779778", "AFFGEOID": "0400000US06", "GEOID": "06", "STUSPS": "CA", "NAME": "California", "LSAD": "00", "ALAND": 403503931312, "AWATER": 20463871877 }, "geometry": { "type": "MultiPolygon", "coordinates": [ [ [ [ -118.593969, 33.467198 ], [ -118.484785, 33.487483 ], [ -118.370323, 33.409285 ], [ -118.286261, 33.351463 ], [ -118.325244, 33.299075 ], [ -118.374768, 33.320065 ], [ -118.465368, 33.326056 ], [ -118.482609, 33.369914 ], [ -118.563442, 33.434381 ], [ -118.593969, 33.467198 ] ] ], [ [ [ -118.594033, 33.035951 ], [ -118.540069, 32.980933 ], [ -118.446771, 32.895424 ], [ -118.353504, 32.821962 ], [ -118.425634, 32.800595 ], [ -118.487908, 32.84459 ], [ -118.581513, 32.931672 ], [ -118.641578, 33.017129 ], [ -118.594033, 33.035951 ] ] ], [ [ [ -119.578942, 33.278628 ], [ -119.510489, 33.307269 ], [ -119.427171, 33.266023 ], [ -119.429559, 33.228167 ], [ -119.464725, 33.215432 ], [ -119.545872, 33.233406 ], [ -119.578942, 33.278628 ] ] ], [ [ [ -119.916216, 34.058351 ], [ -119.857304, 34.071298 ], [ -119.739472, 34.049299 ], [ -119.5667, 34.053452 ], [ -119.470736656944013, 34.053996622104002 ], [ -119.442654, 34.054156 ], [ -119.364214, 34.050794 ], [ -119.363065, 34.000548 ], [ -119.391587, 33.994636 ], [ -119.487719557382007, 33.996515154389293 ], [ -119.554472, 33.99782 ], [ -119.662825, 33.985889 ], [ -119.721206, 33.959583 ], [ -119.795938, 33.962929 ], [ -119.873358, 33.980375 ], [ -119.876916, 34.023527 ], [ -119.916216, 34.058351 ] ] ], [ [ [ -120.368278, 34.076465 ], [ -120.24248, 34.057172 ], [ -120.135853, 34.026087 ], [ -120.055107, 34.037729 ], [ -119.984316, 33.983948 ], [ -119.973691, 33.942481 ], [ -120.049682, 33.914563 ], [ -120.121817, 33.895712 ], [ -120.179049, 33.927994 ], [ -120.200085, 33.956904 ], [ -120.36484, 33.991781 ], [ -120.454134, 34.028081 ], [ -120.368278, 34.076465 ] ] ], [ [ [ -124.387023, 40.504954 ], [ -124.301355, 40.659643 ], [ -124.176715, 40.843618 ], [ -124.118147, 40.989263 ], [ -124.125448, 41.048504 ], [ -124.154513, 41.087159 ], [ -124.163988, 41.138675 ], [ -124.122677, 41.189726 ], [ -124.092284, 41.287695 ], [ -124.063076, 41.439579 ], [ -124.067473659422006, 41.464736188490896 ], [ -124.081987, 41.547761 ], [ -124.116037, 41.628849 ], [ -124.143479, 41.709284 ], [ -124.154246, 41.728801 ], [ -124.19104, 41.736079 ], [ -124.245027, 41.7923 ], [ -124.219592, 41.846432 ], [ -124.203402, 41.940964 ], [ -124.211605, 41.99846 ], [ -124.001188, 41.996146 ], [ -123.822037598587997, 41.995620816947003 ], [ -123.656998, 41.995137 ], [ -123.519112836804013, 41.9991725180329 ], [ -123.43477, 42.001641 ], [ -123.347562, 41.999108 ], [ -123.231001260578012, 42.004970062256 ], [ -123.145959, 42.009247 ], [ -123.045254, 42.003049 ], [ -122.80008, 42.004071 ], [ -122.501135, 42.00846 ], [ -122.28974909615701, 42.007764730496596 ], [ -122.289527, 42.007764 ], [ -122.101922, 42.005766 ], [ -121.846712, 42.00307 ], [ -121.675348, 42.000351 ], [ -121.447539998048001, 41.997190033272595 ], [ -121.43961, 41.99708 ], [ -121.251099, 41.99757 ], [ -121.035195, 41.993323 ], [ -120.879925710236009, 41.993483259984899 ], [ -120.692219, 41.993677 ], [ -120.501069, 41.993785 ], [ -120.181563, 41.994588 ], [ -119.999168, 41.99454 ], [ -119.999276, 41.874891 ], [ -119.99828, 41.618765 ], [ -119.999866, 41.183974 ], [ -119.999231, 40.865899 ], [ -119.997533, 40.720992 ], [ -119.996155, 40.32125 ], [ -119.997124, 40.126363 ], [ -119.997634, 39.956505 ], [ -119.999935448085012, 39.722406924724197 ], [ -120.00174, 39.538852 ], [ -120.003028919656998, 39.445045776160498 ], [ -120.004795512304, 39.316475011958495 ], [ -120.005142, 39.291258 ], [ -120.003364028833005, 39.165626764068797 ], [ -120.002614842913005, 39.112689374095794 ], [ -120.001975250867005, 39.0674958744683 ], [ -120.001014, 38.999574 ], [ -119.904315, 38.933324 ], [ -119.587679, 38.714734 ], [ -119.585406144839013, 38.713150900671202 ], [ -119.328704521076006, 38.534351927797502 ], [ -119.279262, 38.499914 ], [ -119.157226100872009, 38.414391971761297 ], [ -118.949673, 38.26894 ], [ -118.500958, 37.949019 ], [ -118.427995325157013, 37.896224280909799 ], [ -118.022181, 37.602583 ], [ -117.833504044144007, 37.464938766244494 ], [ -117.68061, 37.353399 ], [ -117.244917, 37.030244 ], [ -117.166000564031009, 36.971207538590299 ], [ -117.000895, 36.847694 ], [ -116.488233, 36.459097 ], [ -116.375875, 36.372562 ], [ -116.093601, 36.155805 ], [ -115.892975, 35.999967 ], [ -115.846113922762001, 35.963552673110897 ], [ -115.648032019625006, 35.8096292126029 ], [ -115.647683, 35.809358 ], [ -115.404537, 35.617605 ], [ -115.303743, 35.538207 ], [ -115.160068, 35.424129 ], [ -115.043812, 35.332012 ], [ -114.804249, 35.139689 ], [ -114.633487, 35.001857 ], [ -114.629769, 34.94304 ], [ -114.634382, 34.87289 ], [ -114.576452, 34.8153 ], [ -114.490971, 34.724848 ], [ -114.465246, 34.691202 ], [ -114.422382, 34.580711 ], [ -114.378223, 34.516521 ], [ -114.378852, 34.450376 ], [ -114.335372, 34.450038 ], [ -114.264317, 34.401329 ], [ -114.172845, 34.344979 ], [ -114.14093, 34.305919 ], [ -114.140817151280004, 34.303127513881698 ], [ -114.139055, 34.259538 ], [ -114.17805, 34.239969 ], [ -114.229715, 34.186928 ], [ -114.292806, 34.166725 ], [ -114.348052, 34.134458 ], [ -114.405941, 34.11154 ], [ -114.428026, 34.092787 ], [ -114.430091138520012, 34.078931406279494 ], [ -114.435504, 34.042615 ], [ -114.454807, 34.010968 ], [ -114.509568, 33.957264 ], [ -114.534987, 33.928499 ], [ -114.508708, 33.90064 ], [ -114.505638, 33.864276 ], [ -114.520465, 33.827778 ], [ -114.504863, 33.760465 ], [ -114.496565, 33.719155 ], [ -114.504993, 33.693022 ], [ -114.525201, 33.661583 ], [ -114.529186, 33.60665 ], [ -114.524599, 33.552231 ], [ -114.597283, 33.490653 ], [ -114.629146518189003, 33.433544999999796 ], [ -114.635183, 33.422726 ], [ -114.673901, 33.418299 ], [ -114.725282, 33.405048 ], [ -114.707348, 33.376628 ], [ -114.707962, 33.323421 ], [ -114.723259, 33.288079 ], [ -114.674491, 33.255597 ], [ -114.678097, 33.2303 ], [ -114.679359, 33.159519 ], [ -114.706175, 33.105335 ], [ -114.670803, 33.037984 ], [ -114.628293, 33.031052 ], [ -114.575161, 33.036542 ], [ -114.517066790281007, 33.024628763568501 ], [ -114.511343, 33.023455 ], [ -114.481315, 32.972064 ], [ -114.47664, 32.923628 ], [ -114.463127, 32.901884 ], [ -114.468971, 32.845155 ], [ -114.531746, 32.782503 ], [ -114.570675, 32.747417 ], [ -114.617386523961997, 32.741052773176598 ], [ -114.667493, 32.734226 ], [ -114.705717, 32.741581 ], [ -114.719633, 32.718763 ], [ -115.000802, 32.699676 ], [ -115.465164, 32.6671 ], [ -116.04662, 32.623353 ], [ -116.106178889050014, 32.618578142635599 ], [ -116.540643, 32.583747 ], [ -116.62705, 32.576261 ], [ -116.857154, 32.557459 ], [ -117.124862, 32.534156 ], [ -117.132038955738011, 32.585601187382096 ], [ -117.136664, 32.618754 ], [ -117.168866, 32.671952 ], [ -117.196767, 32.688851 ], [ -117.246069, 32.669352 ], [ -117.255169, 32.700051 ], [ -117.25497, 32.786948 ], [ -117.280971, 32.822247 ], [ -117.28217, 32.839547 ], [ -117.27387, 32.851447 ], [ -117.262905, 32.849349 ], [ -117.25617, 32.859447 ], [ -117.256160535149007, 32.8596735941017 ], [ -117.25447, 32.900146 ], [ -117.272139427178004, 32.9755245825488 ], [ -117.28077, 33.012343 ], [ -117.315278, 33.093504 ], [ -117.362572, 33.168437 ], [ -117.445583, 33.268517 ], [ -117.547693, 33.365491 ], [ -117.59588, 33.386629 ], [ -117.596188685737005, 33.386964994319897 ], [ -117.645582, 33.440728 ], [ -117.715349, 33.460556 ], [ -117.726486, 33.483427 ], [ -117.73225829761401, 33.4879550239786 ], [ -117.814188, 33.552224 ], [ -117.840289, 33.573523 ], [ -117.927091, 33.605521 ], [ -118.000593, 33.654319 ], [ -118.088896, 33.729817 ], [ -118.115076722882009, 33.743803322894998 ], [ -118.132698, 33.753217 ], [ -118.1837, 33.736118 ], [ -118.231926185873007, 33.715295467827495 ], [ -118.258687, 33.703741 ], [ -118.317205, 33.712818 ], [ -118.333295892977006, 33.721184835257702 ], [ -118.354705, 33.732317 ], [ -118.396606, 33.735917 ], [ -118.428407, 33.774715 ], [ -118.394307, 33.804315 ], [ -118.412708, 33.883913 ], [ -118.460611, 33.969111 ], [ -118.519514, 34.027509 ], [ -118.603572, 34.039048 ], [ -118.679366, 34.033255 ], [ -118.744952, 34.032103 ], [ -118.805114, 34.001239 ], [ -118.854653, 34.034215 ], [ -118.944479511459008, 34.046738953351003 ], [ -118.954722, 34.048167 ], [ -119.069959, 34.09047 ], [ -119.109784, 34.094566 ], [ -119.227743, 34.161728 ], [ -119.257043, 34.213304 ], [ -119.270144, 34.252903 ], [ -119.276614251859002, 34.256340425014301 ], [ -119.313034, 34.275689 ], [ -119.37578, 34.321118 ], [ -119.461036, 34.374064 ], [ -119.477946706724012, 34.378837558775594 ], [ -119.536957, 34.395495 ], [ -119.616862, 34.420995 ], [ -119.684666, 34.408297 ], [ -119.709067, 34.395397 ], [ -119.785871, 34.415997 ], [ -119.835771, 34.415796 ], [ -119.873971, 34.408795 ], [ -119.971951, 34.444641 ], [ -120.050682, 34.461651 ], [ -120.141165, 34.473405 ], [ -120.295051, 34.470623 ], [ -120.451425, 34.447094 ], [ -120.511421, 34.522953 ], [ -120.550092, 34.542794 ], [ -120.581293, 34.556959 ], [ -120.622575, 34.554017 ], [ -120.645739, 34.581035 ], [ -120.60197, 34.692095 ], [ -120.614852, 34.730709 ], [ -120.62632, 34.738072 ], [ -120.610266, 34.85818 ], [ -120.670835, 34.904115 ], [ -120.650305211840006, 34.975166302268704 ], [ -120.63357, 35.033085 ], [ -120.629583, 35.078362 ], [ -120.635787, 35.123805 ], [ -120.675074, 35.153061 ], [ -120.714185, 35.175998 ], [ -120.756086, 35.160459 ], [ -120.846674, 35.204429 ], [ -120.89679, 35.247877 ], [ -120.87957, 35.294184 ], [ -120.862133, 35.360763 ], [ -120.884757, 35.430196 ], [ -120.955863, 35.453743 ], [ -121.003359, 35.46071 ], [ -121.11424, 35.57172 ], [ -121.166712, 35.635399 ], [ -121.272322, 35.666711 ], [ -121.314632, 35.71331 ], [ -121.332449, 35.783106 ], [ -121.347053956004004, 35.795186203814602 ], [ -121.406823, 35.844623 ], [ -121.462264, 35.885618 ], [ -121.4862, 35.970348 ], [ -121.531876, 36.014368 ], [ -121.574602, 36.025156 ], [ -121.622009, 36.099695 ], [ -121.680145, 36.165818 ], [ -121.779851, 36.227407 ], [ -121.826425, 36.24186 ], [ -121.888491, 36.30281 ], [ -121.903195, 36.393603 ], [ -121.9416, 36.485602 ], [ -121.970427, 36.582754 ], [ -121.923866, 36.634559 ], [ -121.860604, 36.611136 ], [ -121.814462, 36.682858 ], [ -121.796826, 36.777543 ], [ -121.791544, 36.815186 ], [ -121.812732426762011, 36.850049443745498 ], [ -121.862266, 36.931552 ], [ -121.906468, 36.96895 ], [ -121.95167, 36.97145 ], [ -122.027174, 36.95115 ], [ -122.067316729059996, 36.953595689731401 ], [ -122.105976, 36.955951 ], [ -122.20618, 37.013949 ], [ -122.260481, 37.072548 ], [ -122.284882, 37.101747 ], [ -122.294310191913013, 37.105141386718095 ], [ -122.322971, 37.11546 ], [ -122.344029, 37.144099 ], [ -122.397065, 37.187249 ], [ -122.418452, 37.248521 ], [ -122.405590143901009, 37.314965037743903 ], [ -122.401323, 37.337009 ], [ -122.409258, 37.374805 ], [ -122.443687, 37.435941 ], [ -122.445987, 37.461541 ], [ -122.493789, 37.492341 ], [ -122.516689, 37.52134 ], [ -122.518088, 37.576138 ], [ -122.496786, 37.612136 ], [ -122.496784, 37.686433 ], [ -122.500678019083011, 37.708132568017902 ], [ -122.505601251344999, 37.735567465240699 ], [ -122.511983, 37.77113 ], [ -122.465396, 37.800879 ], [ -122.398139, 37.80563 ], [ -122.385323, 37.790724 ], [ -122.376462, 37.738558 ], [ -122.356784, 37.729505 ], [ -122.361749, 37.71501 ], [ -122.389826876588003, 37.708331 ], [ -122.39319, 37.707531 ], [ -122.360219, 37.592501 ], [ -122.244372, 37.55814 ], [ -122.168449, 37.504143 ], [ -122.129199702224014, 37.5213219985908 ], [ -122.111998, 37.528851 ], [ -122.144396, 37.581866 ], [ -122.152905, 37.640771 ], [ -122.162802519462005, 37.667273013369702 ], [ -122.163049, 37.667933 ], [ -122.213774, 37.698695 ], [ -122.24981, 37.726406 ], [ -122.252452, 37.755129 ], [ -122.312974, 37.777244 ], [ -122.333711, 37.809797 ], [ -122.303931, 37.830087 ], [ -122.32871428740701, 37.893832346320799 ], [ -122.33453, 37.908791 ], [ -122.378709, 37.905191 ], [ -122.425258, 37.955672 ], [ -122.367582, 37.978168 ], [ -122.368891, 38.007948 ], [ -122.342803852188013, 38.009253877781703 ], [ -122.321706, 38.01031 ], [ -122.262861, 38.051473 ], [ -122.269320054917003, 38.060374497531193 ], [ -122.301804, 38.105142 ], [ -122.393588, 38.143449 ], [ -122.397581230624013, 38.142003597253293 ], [ -122.488499639259018, 38.109094474308201 ], [ -122.491283, 38.108087 ], [ -122.499465, 38.032165 ], [ -122.452995, 37.996167 ], [ -122.488665, 37.966714 ], [ -122.486375, 37.921881 ], [ -122.448413, 37.89341 ], [ -122.41847, 37.852721 ], [ -122.483483, 37.826728 ], [ -122.537285, 37.830328 ], [ -122.60129, 37.875126 ], [ -122.678474, 37.906604 ], [ -122.70264, 37.89382 ], [ -122.754606, 37.935527 ], [ -122.797405, 37.976657 ], [ -122.856573, 38.016717 ], [ -122.939711, 38.031908 ], [ -122.97439, 37.992429 ], [ -123.011533, 38.003438 ], [ -122.960889, 38.112962 ], [ -122.953629, 38.17567 ], [ -122.987149, 38.237538 ], [ -122.986319, 38.273164 ], [ -123.003146477056006, 38.295705238714497 ], [ -123.004122, 38.297012 ], [ -123.053504, 38.299385 ], [ -123.068437, 38.33521 ], [ -123.085572, 38.390525 ], [ -123.166428, 38.474947 ], [ -123.249797, 38.511045 ], [ -123.331899, 38.565542 ], [ -123.349612, 38.596805 ], [ -123.441774, 38.699744 ], [ -123.514784, 38.741966 ], [ -123.540922011634009, 38.767656216039292 ], [ -123.571987, 38.798189 ], [ -123.638637, 38.843865 ], [ -123.659846, 38.872529 ], [ -123.71054, 38.91323 ], [ -123.732892, 38.954994 ], [ -123.69074, 39.021293 ], [ -123.721505, 39.125327 ], [ -123.765891, 39.193657 ], [ -123.798991, 39.271355 ], [ -123.825331, 39.360814 ], [ -123.81469, 39.446538 ], [ -123.766475, 39.552803 ], [ -123.782322, 39.621486 ], [ -123.792659, 39.684122 ], [ -123.829545, 39.723071 ], [ -123.851714, 39.832041 ], [ -123.907664, 39.863028 ], [ -123.954952, 39.922373 ], [ -124.025205174530015, 40.001299341669004 ], [ -124.035904, 40.013319 ], [ -124.068908, 40.021307 ], [ -124.087086, 40.078442 ], [ -124.139952, 40.11635 ], [ -124.187874, 40.130542 ], [ -124.258405, 40.184277 ], [ -124.34307, 40.243979 ], [ -124.363414, 40.260974 ], [ -124.353124, 40.331425 ], [ -124.365357, 40.374855 ], [ -124.409591, 40.438076 ], [ -124.387023, 40.504954 ] ] ] ] } },
{ "type": "Feature", "properties": { "STATEFP": "32", "STATENS": "01779793", "AFFGEOID": "0400000US32", "GEOID": "32", "STUSPS": "NV", "NAME": "Nevada", "LSAD": "00", "ALAND": 284329506470, "AWATER": 2047206072 }, "geometry": { "type": "MultiPolygon", "coordinates": [ [ [ [ -120.004795512304, 39.316475011958495 ], [ -120.003028919656998, 39.445045776160498 ], [ -120.00174, 39.538852 ], [ -119.999935448085012, 39.722406924724197 ], [ -119.997634, 39.956505 ], [ -119.997124, 40.126363 ], [ -119.996155, 40.32125 ], [ -119.997533, 40.720992 ], [ -119.999231, 40.865899 ], [ -119.999866, 41.183974 ], [ -119.99828, 41.618765 ], [ -119.999276, 41.874891 ], [ -119.999168, 41.99454 ], [ -119.72573, 41.996296 ], [ -119.360123119603003, 41.994092254981197 ], [ -119.324184120439, 41.993875627793294 ], [ -119.20828, 41.993177 ], [ -119.001022, 41.993793 ], [ -118.775869, 41.992692 ], [ -118.501002, 41.995446 ], [ -118.197369215928006, 41.9969940811635 ], [ -118.197189, 41.996995 ], [ -117.873467, 41.998335 ], [ -117.623731, 41.998467 ], [ -117.403613, 41.99929 ], [ -117.197798, 42.00038 ], [ -117.026197, 41.99989 ], [ -117.018203216741014, 41.999839850369099 ], [ -116.625947, 41.997379 ], [ -116.332763, 41.997283 ], [ -115.870181, 41.996766 ], [ -115.625914, 41.997415 ], [ -115.313877, 41.996103 ], [ -115.038109752433996, 41.998634115676495 ], [ -114.89921, 41.999909 ], [ -114.598267, 41.994511 ], [ -114.281855, 41.994214 ], [ -114.281799467219997, 41.994213885757894 ], [ -114.041723, 41.99372 ], [ -114.039901, 41.753781 ], [ -114.040231, 41.49169 ], [ -114.041447, 41.207752 ], [ -114.042145, 40.999926 ], [ -114.042145146235001, 40.9998965772633 ], [ -114.043505, 40.726292 ], [ -114.045577, 40.495801 ], [ -114.046178, 40.398313 ], [ -114.046372817372998, 40.116935833012199 ], [ -114.046386, 40.097896 ], [ -114.047268153076999, 39.906098113756201 ], [ -114.047783, 39.79416 ], [ -114.047181412925994, 39.542743602229699 ], [ -114.047079, 39.499943 ], [ -114.049104, 39.005509 ], [ -114.048054, 38.878693 ], [ -114.049436705931001, 38.677362456879592 ], [ -114.050153620806, 38.572975213003403 ], [ -114.050154, 38.57292 ], [ -114.05012, 38.404536 ], [ -114.050138, 38.24996 ], [ -114.049903375658005, 38.148763026670593 ], [ -114.049903, 38.148601 ], [ -114.049658, 37.881368 ], [ -114.051728, 37.745997 ], [ -114.052472, 37.604776 ], [ -114.052701, 37.492014 ], [ -114.051974, 37.284511 ], [ -114.051749, 37.088434 ], [ -114.0506, 37.000396 ], [ -114.050160776088006, 36.843141539689398 ], [ -114.049493, 36.604059 ], [ -114.047584, 36.325573 ], [ -114.048226, 36.268874 ], [ -114.046838, 36.194069 ], [ -114.09987, 36.121654 ], [ -114.138203, 36.053161 ], [ -114.151725, 36.024563 ], [ -114.21369, 36.015613 ], [ -114.270645, 36.03572 ], [ -114.316109, 36.063109 ], [ -114.337273, 36.10802 ], [ -114.372106, 36.143114 ], [ -114.41695, 36.145761 ], [ -114.448654, 36.12641 ], [ -114.487034, 36.129396 ], [ -114.511721, 36.150956 ], [ -114.572031, 36.15161 ], [ -114.627855, 36.141012 ], [ -114.666538, 36.117343 ], [ -114.736165, 36.104367 ], [ -114.743342, 36.070535 ], [ -114.743299245886007, 36.065935173760096 ], [ -114.742779, 36.009963 ], [ -114.731159, 35.943916 ], [ -114.700271, 35.901772 ], [ -114.669687, 35.865084 ], [ -114.70371, 35.814585 ], [ -114.697309, 35.733686 ], [ -114.689407, 35.651412 ], [ -114.653406, 35.610789 ], [ -114.663105, 35.524491 ], [ -114.6645, 35.449497 ], [ -114.627137, 35.409504 ], [ -114.587129, 35.262376 ], [ -114.572747, 35.138725 ], [ -114.59912, 35.12105 ], [ -114.619905, 35.121632 ], [ -114.625069, 35.068478 ], [ -114.633487, 35.001857 ], [ -114.804249, 35.139689 ], [ -115.043812, 35.332012 ], [ -115.160068, 35.424129 ], [ -115.303743, 35.538207 ], [ -115.404537, 35.617605 ], [ -115.647683, 35.809358 ], [ -115.648032019625006, 35.8096292126029 ], [ -115.846113922762001, 35.963552673110897 ], [ -115.892975, 35.999967 ], [ -116.093601, 36.155805 ], [ -116.375875, 36.372562 ], [ -116.488233, 36.459097 ], [ -117.000895, 36.847694 ], [ -117.166000564031009, 36.971207538590299 ], [ -117.244917, 37.030244 ], [ -117.68061, 37.353399 ], [ -117.833504044144007, 37.464938766244494 ], [ -118.022181, 37.602583 ], [ -118.427995325157013, 37.896224280909799 ], [ -118.500958, 37.949019 ], [ -118.949673, 38.26894 ], [ -119.157226100872009, 38.414391971761297 ], [ -119.279262, 38.499914 ], [ -119.328704521076006, 38.534351927797502 ], [ -119.585406144839013, 38.713150900671202 ], [ -119.587679, 38.714734 ], [ -119.904315, 38.933324 ], [ -120.001014, 38.999574 ], [ -120.001975250867005, 39.0674958744683 ], [ -120.002614842913005, 39.112689374095794 ], [ -120.003364028833005, 39.165626764068797 ], [ -120.005142, 39.291258 ], [ -120.004795512304, 39.316475011958495 ] ] ] ] } },
{ "type": "Feature", "properties": { "STATEFP": "49", "STATENS": "01455989", "AFFGEOID": "0400000US49", "GEOID": "49", "STUSPS": "UT", "NAME": "Utah", "LSAD": "00", "ALAND": 212886221680, "AWATER": 6998824394 }, "geometry": { "type": "MultiPolygon", "coordinates": [ [ [ [ -114.052472, 37.604776 ], [ -114.051728, 37.745997 ], [ -114.049658, 37.881368 ], [ -114.049903, 38.148601 ], [ -114.049903375658005, 38.148763026670593 ], [ -114.050138, 38.24996 ], [ -114.05012, 38.404536 ], [ -114.050154, 38.57292 ], [ -114.050153620806, 38.572975213003403 ], [ -114.049436705931001, 38.677362456879592 ], [ -114.048054, 38.878693 ], [ -114.049104, 39.005509 ], [ -114.047079, 39.499943 ], [ -114.047181412925994, 39.542743602229699 ], [ -114.047783, 39.79416 ], [ -114.047268153076999, 39.906098113756201 ], [ -114.046386, 40.097896 ], [ -114.046372817372998, 40.116935833012199 ], [ -114.046178, 40.398313 ], [ -114.045577, 40.495801 ], [ -114.043505, 40.726292 ], [ -114.042145146235001, 40.9998965772633 ], [ -114.042145, 40.999926 ], [ -114.041447, 41.207752 ], [ -114.040231, 41.49169 ], [ -114.039901, 41.753781 ], [ -114.041723, 41.99372 ], [ -113.817964, 41.98858 ], [ -113.496548, 41.993305 ], [ -113.249159, 41.996203 ], [ -113.000821, 41.998223 ], [ -113.000040139624005, 41.998227612539097 ], [ -112.648019, 42.000307 ], [ -112.264936, 42.000991 ], [ -112.159177451510004, 41.998681929737799 ], [ -112.109532, 41.997598 ], [ -112.109443055820009, 41.997598429406594 ], [ -111.750778, 41.99933 ], [ -111.507813035176, 41.9996856683522 ], [ -111.50780619568701, 41.999685678364301 ], [ -111.471381, 41.999739 ], [ -111.374129, 42.000893 ], [ -111.046689, 42.001567 ], [ -111.045818464842, 41.579844948225798 ], [ -111.045789, 41.565571 ], [ -111.0466, 41.360692 ], [ -111.046636983126007, 41.2516269562514 ], [ -111.046723, 40.997959 ], [ -110.539819, 40.996346 ], [ -110.121639, 40.997101 ], [ -110.048482995685006, 40.997297292850597 ], [ -110.000716736441007, 40.997425459708197 ], [ -109.715409, 40.998191 ], [ -109.250735, 41.001009 ], [ -109.050076, 41.000659 ], [ -109.048455, 40.826081 ], [ -109.048259750048004, 40.662601817228001 ], [ -109.048249, 40.653601 ], [ -109.050732112077, 40.222655258257596 ], [ -109.050973, 40.180849 ], [ -109.050615, 39.87497 ], [ -109.050871925262015, 39.660471777159401 ], [ -109.051066846273002, 39.497738809366197 ], [ -109.051223831017012, 39.366677549586292 ], [ -109.051512, 39.126095 ], [ -109.059962, 38.499987 ], [ -109.060062, 38.275489 ], [ -109.041762, 38.16469 ], [ -109.041796614855002, 38.153032304968498 ], [ -109.042604100621006, 37.881084817492599 ], [ -109.043780720501999, 37.484819231417504 ], [ -109.045223, 36.999084 ], [ -109.495338, 36.999105 ], [ -110.000677, 36.997968 ], [ -110.47019, 36.997997 ], [ -110.75069, 37.003197 ], [ -111.066496, 37.002389 ], [ -111.278286, 37.000465 ], [ -111.405869, 37.001481 ], [ -111.412783987872999, 37.001477687156004 ], [ -112.35769, 37.001025 ], [ -112.538571, 37.000744128882005 ], [ -112.545094, 37.000734 ], [ -112.829501944372012, 37.000386401314401 ], [ -112.899190897616009, 37.000301228628402 ], [ -112.966471, 37.000219 ], [ -113.965907, 37.000025 ], [ -114.0506, 37.000396 ], [ -114.051749, 37.088434 ], [ -114.051974, 37.284511 ], [ -114.052701, 37.492014 ], [ -114.052472, 37.604776 ] ] ] ] } },
{ "type": "Feature", "properties": { "STATEFP": "08", "STATENS": "01779779", "AFFGEOID": "0400000US08", "GEOID": "08", "STUSPS": "CO", "NAME": "Colorado", "LSAD": "00", "ALAND": 268422891711, "AWATER": 1181621593 }, "geometry": { "type": "MultiPolygon", "coordinates": [ [ [ [ -109.059962, 38.499987 ], [ -109.051512, 39.126095 ], [ -109.051223831017012, 39.366677549586292 ], [ -109.051066846273002, 39.497738809366197 ], [ -109.050871925262015, 39.660471777159401 ], [ -109.050615, 39.87497 ], [ -109.050973, 40.180849 ], [ -109.050732112077, 40.222655258257596 ], [ -109.048249, 40.653601 ], [ -109.048259750048004, 40.662601817228001 ], [ -109.048455, 40.826081 ], [ -109.050076, 41.000659 ], [ -108.250649, 41.000114 ], [ -107.918418289849001, 41.001227070644099 ], [ -107.367443, 41.003073 ], [ -107.317795759790002, 41.0028424812322 ], [ -106.860377948665004, 41.000718629237099 ], [ -106.321169215913997, 40.998215011068005 ], [ -106.217573, 40.997734 ], [ -106.190554078708999, 40.997746612574396 ], [ -105.277138, 40.998173 ], [ -105.276859994035007, 40.998172917625894 ], [ -104.943371, 40.998074103729799 ], [ -104.855273, 40.998048 ], [ -104.497058, 41.001805 ], [ -104.053249, 41.001406 ], [ -103.574522, 41.001721 ], [ -103.573774006195009, 41.001721799084095 ], [ -103.382491651890007, 41.001926146621003 ], [ -103.076536, 41.002253 ], [ -102.653464137269012, 41.002225324143595 ], [ -102.621033024452004, 41.002223202615603 ], [ -102.556789, 41.002219 ], [ -102.051717516378005, 41.002376967623896 ], [ -102.051614, 41.002377 ], [ -102.051292, 40.749591 ], [ -102.051294151579015, 40.697546832389008 ], [ -102.051304798597016, 40.440007993377002 ], [ -102.051308551844016, 40.349221356872199 ], [ -102.051309, 40.338381 ], [ -102.051744, 40.003078 ], [ -102.051254, 39.818992 ], [ -102.049992135644004, 39.574056097421007 ], [ -102.049961857828009, 39.568178980673096 ], [ -102.04896, 39.373712 ], [ -102.047200721701003, 39.133146709511195 ], [ -102.046571, 39.047038 ], [ -102.045712903087008, 38.697565770078498 ], [ -102.045510574570002, 38.6151645901775 ], [ -102.044944, 38.384419 ], [ -102.044650359146999, 38.268749222503097 ], [ -102.044634270290999, 38.262411567749503 ], [ -102.044255, 38.113011 ], [ -102.041965658628001, 37.738540573638197 ], [ -102.041876, 37.723875 ], [ -102.041890869665011, 37.644277685291797 ], [ -102.041938522873991, 37.389190055393797 ], [ -102.041963, 37.258164 ], [ -102.041983, 37.106551 ], [ -102.04192, 37.035083 ], [ -102.04224, 36.993083 ], [ -102.355288, 36.994506 ], [ -102.698142, 36.995149 ], [ -102.841989, 36.999598 ], [ -103.002199, 37.000104 ], [ -103.086101075631007, 36.999864361106397 ], [ -103.733247, 36.998016 ], [ -104.007849409613002, 36.995984094709101 ], [ -104.338833, 36.993535 ], [ -104.732031, 36.993447 ], [ -105.1208, 36.995428 ], [ -105.155042748048004, 36.995474445610604 ], [ -105.220505200781005, 36.995563236486497 ], [ -105.251296, 36.995605 ], [ -105.41931, 36.995856 ], [ -105.533922, 36.995875 ], [ -105.716471, 36.995849 ], [ -105.718469683991003, 36.995845927301005 ], [ -105.997472, 36.995417 ], [ -106.006316410798007, 36.995386628817293 ], [ -106.343139, 36.99423 ], [ -106.476233588828009, 36.993774100546894 ], [ -106.869796, 36.992426 ], [ -106.877292, 37.000139 ], [ -107.420913, 37.000005 ], [ -107.481736999155004, 37.000004580314297 ], [ -108.000623, 37.000001 ], [ -108.379302950094001, 36.999564686311501 ], [ -108.620309, 36.999287 ], [ -109.045223, 36.999084 ], [ -109.043780720501999, 37.484819231417504 ], [ -109.042604100621006, 37.881084817492599 ], [ -109.041796614855002, 38.153032304968498 ], [ -109.041762, 38.16469 ], [ -109.060062, 38.275489 ], [ -109.059962, 38.499987 ] ] ] ] } },
{ "type": "Feature", "properties": { "STATEFP": "56", "STATENS": "01779807", "AFFGEOID": "0400000US56", "GEOID": "56", "STUSPS": "WY", "NAME": "Wyoming", "LSAD": "00", "ALAND": 251458544898, "AWATER": 1867670745 }, "geometry": { "type": "MultiPolygon", "coordinates": [ [ [ [ -111.056888, 44.866658 ], [ -111.044318545430002, 45.000880003307692 ], [ -111.044275, 45.001345 ], [ -110.785008, 45.002952 ], [ -110.705272, 44.992324 ], [ -110.324441, 44.999156 ], [ -109.99505, 45.003174 ], [ -109.798483772435006, 45.002920308285006 ], [ -109.574321, 45.002631 ], [ -109.103445, 45.005904 ], [ -109.062262, 44.999623 ], [ -108.621493494730004, 44.999676371021501 ], [ -108.500679, 44.999691 ], [ -108.248525185308011, 45.000629827417498 ], [ -107.997353, 45.001565 ], [ -107.911522788162003, 45.001544004611397 ], [ -107.351441, 45.001407 ], [ -106.888773, 44.995885 ], [ -106.263715092465006, 44.993788433001498 ], [ -106.263586, 44.993788 ], [ -106.024880029032005, 44.997584123556095 ], [ -105.848065, 45.000396 ], [ -105.076600952253997, 45.0002966134074 ], [ -105.038252188274001, 45.0002916729918 ], [ -105.025266, 45.00029 ], [ -104.057698, 44.997431 ], [ -104.05581, 44.691343 ], [ -104.055695199260995, 44.570990377142195 ], [ -104.055389, 44.249983 ], [ -104.055406377827012, 44.180382874095692 ], [ -104.055416190705003, 44.141081206783397 ], [ -104.055488, 43.853477 ], [ -104.055032, 43.558603 ], [ -104.054794284348006, 43.503327530406004 ], [ -104.054684568427007, 43.477815541711003 ], [ -104.053876, 43.289801 ], [ -104.053127, 43.000585 ], [ -104.052586, 42.630917 ], [ -104.052662191568004, 42.611766300541497 ], [ -104.053107, 42.499964 ], [ -104.052793, 42.249962 ], [ -104.052729, 42.016318 ], [ -104.052762137092003, 42.0017182658666 ], [ -104.053026, 41.885464 ], [ -104.052825235238998, 41.697953853064007 ], [ -104.052735, 41.613676 ], [ -104.052634571632993, 41.564275779573698 ], [ -104.052287, 41.393307 ], [ -104.052287134121002, 41.393214000193403 ], [ -104.052453, 41.278202 ], [ -104.053142, 41.114457 ], [ -104.053249, 41.001406 ], [ -104.497058, 41.001805 ], [ -104.855273, 40.998048 ], [ -104.943371, 40.998074103729799 ], [ -105.276859994035007, 40.998172917625894 ], [ -105.277138, 40.998173 ], [ -106.190554078708999, 40.997746612574396 ], [ -106.217573, 40.997734 ], [ -106.321169215913997, 40.998215011068005 ], [ -106.860377948665004, 41.000718629237099 ], [ -107.317795759790002, 41.0028424812322 ], [ -107.367443, 41.003073 ], [ -107.918418289849001, 41.001227070644099 ], [ -108.250649, 41.000114 ], [ -109.050076, 41.000659 ], [ -109.250735, 41.001009 ], [ -109.715409, 40.998191 ], [ -110.000716736441007, 40.997425459708197 ], [ -110.048482995685006, 40.997297292850597 ], [ -110.121639, 40.997101 ], [ -110.539819, 40.996346 ], [ -111.046723, 40.997959 ], [ -111.046636983126007, 41.2516269562514 ], [ -111.0466, 41.360692 ], [ -111.045789, 41.565571 ], [ -111.045818464842, 41.579844948225798 ], [ -111.046689, 42.001567 ], [ -111.04708, 42.34942 ], [ -111.045530292713011, 42.513912877775098 ], [ -111.043564, 42.722624 ], [ -111.043959, 42.96445 ], [ -111.044052705118006, 43.019407032899004 ], [ -111.044143, 43.072364 ], [ -111.044617, 43.31572 ], [ -111.045360560970011, 43.501051451112197 ], [ -111.04611, 43.687848 ], [ -111.046515, 43.908376 ], [ -111.047219183001999, 43.983431292607698 ], [ -111.048452, 44.114831 ], [ -111.049148, 44.374925 ], [ -111.048974, 44.474072 ], [ -111.055208, 44.624927 ], [ -111.055332727123997, 44.666262309917499 ], [ -111.055511, 44.725343 ], [ -111.056888, 44.866658 ] ] ] ] } },
{ "type": "Feature", "properties": { "STATEFP": "04", "STATENS": "01779777", "AFFGEOID": "0400000US04", "GEOID": "04", "STUSPS": "AZ", "NAME": "Arizona", "LSAD": "00", "ALAND": 294198551143, "AWATER": 1027337603 }, "geometry": { "type": "MultiPolygon", "coordinates": [ [ [ [ -114.799683, 32.593621 ], [ -114.809393, 32.617119 ], [ -114.76495, 32.649391 ], [ -114.719633, 32.718763 ], [ -114.705717, 32.741581 ], [ -114.667493, 32.734226 ], [ -114.617386523961997, 32.741052773176598 ], [ -114.570675, 32.747417 ], [ -114.531746, 32.782503 ], [ -114.468971, 32.845155 ], [ -114.463127, 32.901884 ], [ -114.47664, 32.923628 ], [ -114.481315, 32.972064 ], [ -114.511343, 33.023455 ], [ -114.517066790281007, 33.024628763568501 ], [ -114.575161, 33.036542 ], [ -114.628293, 33.031052 ], [ -114.670803, 33.037984 ], [ -114.706175, 33.105335 ], [ -114.679359, 33.159519 ], [ -114.678097, 33.2303 ], [ -114.674491, 33.255597 ], [ -114.723259, 33.288079 ], [ -114.707962, 33.323421 ], [ -114.707348, 33.376628 ], [ -114.725282, 33.405048 ], [ -114.673901, 33.418299 ], [ -114.635183, 33.422726 ], [ -114.629146518189003, 33.433544999999796 ], [ -114.597283, 33.490653 ], [ -114.524599, 33.552231 ], [ -114.529186, 33.60665 ], [ -114.525201, 33.661583 ], [ -114.504993, 33.693022 ], [ -114.496565, 33.719155 ], [ -114.504863, 33.760465 ], [ -114.520465, 33.827778 ], [ -114.505638, 33.864276 ], [ -114.508708, 33.90064 ], [ -114.534987, 33.928499 ], [ -114.509568, 33.957264 ], [ -114.454807, 34.010968 ], [ -114.435504, 34.042615 ], [ -114.430091138520012, 34.078931406279494 ], [ -114.428026, 34.092787 ], [ -114.405941, 34.11154 ], [ -114.348052, 34.134458 ], [ -114.292806, 34.166725 ], [ -114.229715, 34.186928 ], [ -114.17805, 34.239969 ], [ -114.139055, 34.259538 ], [ -114.140817151280004, 34.303127513881698 ], [ -114.14093, 34.305919 ], [ -114.172845, 34.344979 ], [ -114.264317, 34.401329 ], [ -114.335372, 34.450038 ], [ -114.378852, 34.450376 ], [ -114.378223, 34.516521 ], [ -114.422382, 34.580711 ], [ -114.465246, 34.691202 ], [ -114.490971, 34.724848 ], [ -114.576452, 34.8153 ], [ -114.634382, 34.87289 ], [ -114.629769, 34.94304 ], [ -114.633487, 35.001857 ], [ -114.625069, 35.068478 ], [ -114.619905, 35.121632 ], [ -114.59912, 35.12105 ], [ -114.572747, 35.138725 ], [ -114.587129, 35.262376 ], [ -114.627137, 35.409504 ], [ -114.6645, 35.449497 ], [ -114.663105, 35.524491 ], [ -114.653406, 35.610789 ], [ -114.689407, 35.651412 ], [ -114.697309, 35.733686 ], [ -114.70371, 35.814585 ], [ -114.669687, 35.865084 ], [ -114.700271, 35.901772 ], [ -114.731159, 35.943916 ], [ -114.742779, 36.009963 ], [ -114.743299245886007, 36.065935173760096 ], [ -114.743342, 36.070535 ], [ -114.736165, 36.104367 ], [ -114.666538, 36.117343 ], [ -114.627855, 36.141012 ], [ -114.572031, 36.15161 ], [ -114.511721, 36.150956 ], [ -114.487034, 36.129396 ], [ -114.448654, 36.12641 ], [ -114.41695, 36.145761 ], [ -114.372106, 36.143114 ], [ -114.337273, 36.10802 ], [ -114.316109, 36.063109 ], [ -114.270645, 36.03572 ], [ -114.21369, 36.015613 ], [ -114.151725, 36.024563 ], [ -114.138203, 36.053161 ], [ -114.09987, 36.121654 ], [ -114.046838, 36.194069 ], [ -114.048226, 36.268874 ], [ -114.047584, 36.325573 ], [ -114.049493, 36.604059 ], [ -114.050160776088006, 36.843141539689398 ], [ -114.0506, 37.000396 ], [ -113.965907, 37.000025 ], [ -112.966471, 37.000219 ], [ -112.899190897616009, 37.000301228628402 ], [ -112.829501944372012, 37.000386401314401 ], [ -112.545094, 37.000734 ], [ -112.538571, 37.000744128882005 ], [ -112.35769, 37.001025 ], [ -111.412783987872999, 37.001477687156004 ], [ -111.405869, 37.001481 ], [ -111.278286, 37.000465 ], [ -111.066496, 37.002389 ], [ -110.75069, 37.003197 ], [ -110.47019, 36.997997 ], [ -110.000677, 36.997968 ], [ -109.495338, 36.999105 ], [ -109.045223, 36.999084 ], [ -109.045433, 36.874589 ], [ -109.045729, 36.117028 ], [ -109.045871168204997, 36.002701630519006 ], [ -109.046024, 35.8798 ], [ -109.046296, 35.614251 ], [ -109.046796, 35.363606 ], [ -109.046355894384007, 35.175507188351197 ], [ -109.045851235182994, 34.959818515836702 ], [ -109.045851, 34.959718 ], [ -109.046138935363004, 34.579291012817897 ], [ -109.046182, 34.522393 ], [ -109.046426, 33.875052 ], [ -109.046607473922009, 33.778223800350496 ], [ -109.047298, 33.409783 ], [ -109.047237, 33.208965 ], [ -109.047236980537008, 33.208895031550796 ], [ -109.047117062309994, 32.777794000947701 ], [ -109.047117, 32.77757 ], [ -109.047612, 32.426377 ], [ -109.048296, 32.084093 ], [ -109.049195, 31.796551 ], [ -109.050044, 31.332502 ], [ -109.829689, 31.334067 ], [ -110.460172610445014, 31.333141378991598 ], [ -111.074825, 31.332239 ], [ -111.366969371164004, 31.424824287191598 ], [ -112.365043, 31.74113 ], [ -113.333767973015014, 32.040249080090099 ], [ -113.750756, 32.169005 ], [ -114.813613, 32.494277 ], [ -114.811536, 32.522834 ], [ -114.795635, 32.550956 ], [ -114.814185, 32.564788 ], [ -114.799683, 32.593621 ] ] ] ] } }
]
}
