{
"type": "FeatureCollection",
"name": "Reservoirs",
"crs": { "type": "name", "properties": { "name": "urn:ogc:def:crs:OGC:1.3:CRS84" } },
"features": [
{ "type": "Feature", "properties": { "Date": "2026-09-20", "Storage": 145967.0, "Storage_MAF": 0.15, "Reservoir": "Blue Mesa Reservoir", "Type.x": "Recorded", "Water.Year": 2026.0, "Stor_Day_Avg_10yr": 0.54, "Stor_Day_Avg_30yr": 0.58, "StorMAF_1yr_Ago": 0.59, "Max_Capacity": 827940.0, "Max_Capacity_MAF": 0.83, "Percent_Full_MAF": 17.63, "Elevation": 7413.79, "Type.y": "Recorded", "Water_Year": 2026.0, "Elv_10yr_Average": 5891.36, "Elv_30yr_Average": 5919.29, "Elv_1yr_Ago": 7467.47, "Elv_Day_Avg_10yr": 7482.09, "Elv_Day_Avg_30yr": 7488.1 }, "geometry": { "type": "Point", "coordinates": [ -107.33, 38.45 ] } },
{ "type": "Feature", "properties": { "Date": "2026-09-20", "Storage": 2524940.0, "Storage_MAF": 2.52, "Reservoir": "Flaming Gorge", "Type.x": "Recorded", "Water.Year": 2026.0, "Stor_Day_Avg_10yr": 3.21, "Stor_Day_Avg_30yr": 3.18, "StorMAF_1yr_Ago": 3.42, "Max_Capacity": 3671100.0, "Max_Capacity_MAF": 3.67, "Percent_Full_MAF": 68.78, "Elevation": 6008.1, "Type.y": "Recorded", "Water_Year": 2026.0, "Elv_10yr_Average": 5893.45, "Elv_30yr_Average": 5919.31, "Elv_1yr_Ago": 6022.56, "Elv_Day_Avg_10yr": 6027.04, "Elv_Day_Avg_30yr": 6025.48 }, "geometry": { "type": "Point", "coordinates": [ -109.42, 40.91 ] } },
{ "type": "Feature", "properties": { "Date": "2026-09-20", "Storage": 276833.0, "Storage_MAF": 0.28, "Reservoir": "Fontenelle Reservoir", "Type.x": "Recorded", "Water.Year": 2026.0, "Stor_Day_Avg_10yr": 0.26, "Stor_Day_Avg_30yr": 0.27, "StorMAF_1yr_Ago": 0.24, "Max_Capacity": 345360.0, "Max_Capacity_MAF": 0.35, "Percent_Full_MAF": 80.16, "Elevation": 6498.44, "Type.y": "Recorded", "Water_Year": 2026.0, "Elv_10yr_Average": 5891.47, "Elv_30yr_Average": 5919.2, "Elv_1yr_Ago": 6491.89, "Elv_Day_Avg_10yr": 6495.52, "Elv_Day_Avg_30yr": 6495.69 }, "geometry": { "type": "Point", "coordinates": [ -110.13, 42.1 ] } },
{ "type": "Feature", "properties": { "Date": "2026-09-20", "Storage": 276199.0, "Storage_MAF": 0.28, "Reservoir": "Granby Reservoir", "Type.x": "Recorded", "Water.Year": 2026.0, "Stor_Day_Avg_10yr": 0.48, "Stor_Day_Avg_30yr": 0.45, "StorMAF_1yr_Ago": 0.28, "Max_Capacity": 539758.0, "Max_Capacity_MAF": 0.54, "Percent_Full_MAF": 51.17, "Elevation": 8237.91, "Type.y": "Recorded", "Water_Year": 2026.0, "Elv_10yr_Average": 5889.07, "Elv_30yr_Average": 5919.36, "Elv_1yr_Ago": 8267.97, "Elv_Day_Avg_10yr": 8271.45, "Elv_Day_Avg_30yr": 8266.07 }, "geometry": { "type": "Point", "coordinates": [ -105.87, 40.14 ] } },
{ "type": "Feature", "properties": { "Date": "2026-09-20", "Storage": 18075.0, "Storage_MAF": 0.02, "Reservoir": "Green Mountain Reservoir", "Type.x": "Recorded", "Water.Year": 2026.0, "Stor_Day_Avg_10yr": 0.11, "Stor_Day_Avg_30yr": 0.11, "StorMAF_1yr_Ago": 0.13, "Max_Capacity": 153639.0, "Max_Capacity_MAF": 0.15, "Percent_Full_MAF": 11.76, "Elevation": 7833.26, "Type.y": "Recorded", "Water_Year": 2026.0, "Elv_10yr_Average": 5891.97, "Elv_30yr_Average": 5919.32, "Elv_1yr_Ago": 7914.65, "Elv_Day_Avg_10yr": 7924.84, "Elv_Day_Avg_30yr": 7925.79 }, "geometry": { "type": "Point", "coordinates": [ -106.31, 39.88 ] } },
{ "type": "Feature", "properties": { "Date": "2026-09-20", "Storage": 517032.0, "Storage_MAF": 0.52, "Reservoir": "Lake Havasu", "Type.x": "Recorded", "Water.Year": 2026.0, "Stor_Day_Avg_10yr": 0.58, "Stor_Day_Avg_30yr": 0.57, "StorMAF_1yr_Ago": null, "Max_Capacity": 619400.0, "Max_Capacity_MAF": 0.62, "Percent_Full_MAF": 83.47, "Elevation": 447.24, "Type.y": "Recorded", "Water_Year": 2026.0, "Elv_10yr_Average": 5888.93, "Elv_30yr_Average": 5918.65, "Elv_1yr_Ago": 448.11, "Elv_Day_Avg_10yr": 447.87, "Elv_Day_Avg_30yr": 447.69 }, "geometry": { "type": "Point", "coordinates": [ -114.14, 34.4 ] } },
{ "type": "Feature", "properties": { "Date": "2026-09-20", "Storage": 6855660.0, "Storage_MAF": 6.86, "Reservoir": "Lake Mead", "Type.x": "Recorded", "Water.Year": 2026.0, "Stor_Day_Avg_10yr": 9.29, "Stor_Day_Avg_30yr": 13.88, "StorMAF_1yr_Ago": 9.01, "Max_Capacity": 26120000.0, "Max_Capacity_MAF": 26.12, "Percent_Full_MAF": 26.25, "Elevation": 1038.22, "Type.y": "Recorded", "Water_Year": 2026.0, "Elv_10yr_Average": 5894.56, "Elv_30yr_Average": 5919.32, "Elv_1yr_Ago": 1057.59, "Elv_Day_Avg_10yr": 1070.77, "Elv_Day_Avg_30yr": 1118.12 }, "geometry": { "type": "Point", "coordinates": [ -114.74, 36.02 ] } },
{ "type": "Feature", "properties": { "Date": "2026-09-20", "Storage": 1648120.0, "Storage_MAF": 1.65, "Reservoir": "Lake Mohave", "Type.x": "Recorded", "Water.Year": 2026.0, "Stor_Day_Avg_10yr": 1.62, "Stor_Day_Avg_30yr": 1.63, "StorMAF_1yr_Ago": 1.6, "Max_Capacity": 1809800.0, "Max_Capacity_MAF": 1.81, "Percent_Full_MAF": 91.07, "Elevation": 639.01, "Type.y": "Recorded", "Water_Year": 2026.0, "Elv_10yr_Average": 5891.52, "Elv_30yr_Average": 5919.31, "Elv_1yr_Ago": 638.66, "Elv_Day_Avg_10yr": 640.27, "Elv_Day_Avg_30yr": 640.62 }, "geometry": { "type": "Point", "coordinates": [ -114.57, 35.2 ] } },
{ "type": "Feature", "properties": { "Date": "2026-09-20", "Storage": 112230.0, "Storage_MAF": 0.11, "Reservoir": "Lake Nighthorse", "Type.x": "Recorded", "Water.Year": 2026.0, "Stor_Day_Avg_10yr": 0.11, "Stor_Day_Avg_30yr": 0.1, "StorMAF_1yr_Ago": 0.11, "Max_Capacity": 120000.0, "Max_Capacity_MAF": 0.12, "Percent_Full_MAF": 93.53, "Elevation": 6880.08, "Type.y": "Recorded", "Water_Year": 2026.0, "Elv_10yr_Average": 5894.11, "Elv_30yr_Average": 5919.4, "Elv_1yr_Ago": 6880.56, "Elv_Day_Avg_10yr": 6880.4, "Elv_Day_Avg_30yr": 6505.82 }, "geometry": { "type": "Point", "coordinates": [ -107.9, 37.22 ] } },
{ "type": "Feature", "properties": { "Date": "2026-09-20", "Storage": 5107190.0, "Storage_MAF": 5.11, "Reservoir": "Lake Powell", "Type.x": "Recorded", "Water.Year": 2026.0, "Stor_Day_Avg_10yr": 10.37, "Stor_Day_Avg_30yr": 14.15, "StorMAF_1yr_Ago": 11.27, "Max_Capacity": 24322000.0, "Max_Capacity_MAF": 24.32, "Percent_Full_MAF": 21.0, "Elevation": 3517.21, "Type.y": "Recorded", "Water_Year": 2026.0, "Elv_10yr_Average": 5893.96, "Elv_30yr_Average": 5919.31, "Elv_1yr_Ago": 3544.56, "Elv_Day_Avg_10yr": 3584.5, "Elv_Day_Avg_30yr": 3619.09 }, "geometry": { "type": "Point", "coordinates": [ -111.48, 36.94 ] } },
{ "type": "Feature", "properties": { "Date": "2026-09-20", "Storage": 162073.0, "Storage_MAF": 0.16, "Reservoir": "McPhee Reservoir", "Type.x": "Recorded", "Water.Year": 2026.0, "Stor_Day_Avg_10yr": 0.24, "Stor_Day_Avg_30yr": 0.25, "StorMAF_1yr_Ago": 0.15, "Max_Capacity": 381100.0, "Max_Capacity_MAF": 0.38, "Percent_Full_MAF": 42.53, "Elevation": 6859.57, "Type.y": "Recorded", "Water_Year": 2026.0, "Elv_10yr_Average": 5890.66, "Elv_30yr_Average": 5919.23, "Elv_1yr_Ago": 6867.4, "Elv_Day_Avg_10yr": 6884.53, "Elv_Day_Avg_30yr": 6888.7 }, "geometry": { "type": "Point", "coordinates": [ -108.57, 37.58 ] } },
{ "type": "Feature", "properties": { "Date": "2026-09-20", "Storage": 114668.0, "Storage_MAF": 0.11, "Reservoir": "Morrow Point Reservoir", "Type.x": "Recorded", "Water.Year": 2026.0, "Stor_Day_Avg_10yr": 0.11, "Stor_Day_Avg_30yr": 0.11, "StorMAF_1yr_Ago": 0.11, "Max_Capacity": 117190.0, "Max_Capacity_MAF": 0.12, "Percent_Full_MAF": 97.85, "Elevation": 7157.07, "Type.y": "Recorded", "Water_Year": 2026.0, "Elv_10yr_Average": 5893.99, "Elv_30yr_Average": 5919.36, "Elv_1yr_Ago": 7155.58, "Elv_Day_Avg_10yr": 7152.95, "Elv_Day_Avg_30yr": 7151.42 }, "geometry": { "type": "Point", "coordinates": [ -107.54, 38.45 ] } },
{ "type": "Feature", "properties": { "Date": "2026-09-20", "Storage": 786378.0, "Storage_MAF": 0.79, "Reservoir": "Navajo Reservoir", "Type.x": "Recorded", "Water.Year": 2026.0, "Stor_Day_Avg_10yr": 1.14, "Stor_Day_Avg_30yr": 1.22, "StorMAF_1yr_Ago": 1.65, "Max_Capacity": 1696000.0, "Max_Capacity_MAF": 1.7, "Percent_Full_MAF": 46.37, "Elevation": 6010.7, "Type.y": "Recorded", "Water_Year": 2026.0, "Elv_10yr_Average": 5891.29, "Elv_30yr_Average": 5919.31, "Elv_1yr_Ago": 6021.04, "Elv_Day_Avg_10yr": 6042.71, "Elv_Day_Avg_30yr": 6048.77 }, "geometry": { "type": "Point", "coordinates": [ -107.61, 36.8 ] } },
{ "type": "Feature", "properties": { "Date": "2026-09-20", "Storage": 41075.8, "Storage_MAF": 0.04, "Reservoir": "Ruedi Reservoir", "Type.x": "Recorded", "Water.Year": 2026.0, "Stor_Day_Avg_10yr": 0.08, "Stor_Day_Avg_30yr": 0.08, "StorMAF_1yr_Ago": 0.1, "Max_Capacity": 102000.0, "Max_Capacity_MAF": 0.1, "Percent_Full_MAF": 40.27, "Elevation": 7686.42, "Type.y": "Recorded", "Water_Year": 2026.0, "Elv_10yr_Average": 5896.48, "Elv_30yr_Average": 5919.63, "Elv_1yr_Ago": 7730.91, "Elv_Day_Avg_10yr": 7740.52, "Elv_Day_Avg_30yr": 7744.28 }, "geometry": { "type": "Point", "coordinates": [ -106.78, 39.36 ] } },
{ "type": "Feature", "properties": { "Date": "2026-09-19", "Storage": 87274.5, "Storage_MAF": 0.09, "Reservoir": "Starvation Reservoir", "Type.x": "Recorded", "Water.Year": 2026.0, "Stor_Day_Avg_10yr": 0.12, "Stor_Day_Avg_30yr": 0.12, "StorMAF_1yr_Ago": 0.13, "Max_Capacity": 167300.0, "Max_Capacity_MAF": 0.17, "Percent_Full_MAF": 52.17, "Elevation": 5683.37, "Type.y": "Recorded", "Water_Year": 2026.0, "Elv_10yr_Average": 5893.36, "Elv_30yr_Average": 5919.33, "Elv_1yr_Ago": 5689.49, "Elv_Day_Avg_10yr": 5696.62, "Elv_Day_Avg_30yr": 5696.52 }, "geometry": { "type": "Point", "coordinates": [ -110.45, 40.19 ] } },
{ "type": "Feature", "properties": { "Date": "2026-09-19", "Storage": 845334.0, "Storage_MAF": 0.85, "Reservoir": "Strawberry Reservoir", "Type.x": "Recorded", "Water.Year": 2026.0, "Stor_Day_Avg_10yr": 0.89, "Stor_Day_Avg_30yr": 0.89, "StorMAF_1yr_Ago": 0.95, "Max_Capacity": 1106500.0, "Max_Capacity_MAF": 1.11, "Percent_Full_MAF": 76.4, "Elevation": 7586.31, "Type.y": "Recorded", "Water_Year": 2026.0, "Elv_10yr_Average": 5891.48, "Elv_30yr_Average": 5919.34, "Elv_1yr_Ago": 7592.91, "Elv_Day_Avg_10yr": 7589.36, "Elv_Day_Avg_30yr": 7589.19 }, "geometry": { "type": "Point", "coordinates": [ -111.03, 40.14 ] } },
{ "type": "Feature", "properties": { "Date": "2026-09-20", "Storage": 50446.7, "Storage_MAF": 0.05, "Reservoir": "Taylor Park Reservoir", "Type.x": "Recorded", "Water.Year": 2026.0, "Stor_Day_Avg_10yr": 0.07, "Stor_Day_Avg_30yr": 0.07, "StorMAF_1yr_Ago": 0.07, "Max_Capacity": 106200.0, "Max_Capacity_MAF": 0.11, "Percent_Full_MAF": 47.5, "Elevation": 9296.42, "Type.y": "Recorded", "Water_Year": 2026.0, "Elv_10yr_Average": 5894.49, "Elv_30yr_Average": 5919.58, "Elv_1yr_Ago": 9306.28, "Elv_Day_Avg_10yr": 9311.37, "Elv_Day_Avg_30yr": 9311.26 }, "geometry": { "type": "Point", "coordinates": [ -106.58, 38.84 ] } },
{ "type": "Feature", "properties": { "Date": "2026-09-20", "Storage": 34402.7, "Storage_MAF": 0.03, "Reservoir": "Vallecito Reservoir", "Type.x": "Recorded", "Water.Year": 2026.0, "Stor_Day_Avg_10yr": 0.06, "Stor_Day_Avg_30yr": 0.06, "StorMAF_1yr_Ago": 0.05, "Max_Capacity": 129700.0, "Max_Capacity_MAF": 0.13, "Percent_Full_MAF": 26.52, "Elevation": 7623.7, "Type.y": "Recorded", "Water_Year": 2026.0, "Elv_10yr_Average": 5893.88, "Elv_30yr_Average": 5919.5, "Elv_1yr_Ago": 7619.22, "Elv_Day_Avg_10yr": 7635.23, "Elv_Day_Avg_30yr": 7636.91 }, "geometry": { "type": "Point", "coordinates": [ -107.57, 37.39 ] } }
]
}
