{
"type": "FeatureCollection",
"name": "Reservoirs",
"crs": { "type": "name", "properties": { "name": "urn:ogc:def:crs:OGC:1.3:CRS84" } },
"features": [
{ "type": "Feature", "properties": { "Date": "2026-09-13", "Storage": 149479.0, "Storage_MAF": 0.15, "Reservoir": "Blue Mesa Reservoir", "Type.x": "Recorded", "Water.Year": 2026.0, "Stor_Day_Avg_10yr": 0.55, "Stor_Day_Avg_30yr": 0.59, "StorMAF_1yr_Ago": 0.6, "Max_Capacity": 827940.0, "Max_Capacity_MAF": 0.83, "Percent_Full_MAF": 18.05, "Elevation": 7414.76, "Type.y": "Recorded", "Water_Year": 2026.0, "Elv_10yr_Average": 5891.92, "Elv_30yr_Average": 5919.54, "Elv_1yr_Ago": 7468.81, "Elv_Day_Avg_10yr": 7483.85, "Elv_Day_Avg_30yr": 7489.57 }, "geometry": { "type": "Point", "coordinates": [ -107.33, 38.45 ] } },
{ "type": "Feature", "properties": { "Date": "2026-09-13", "Storage": 2543830.0, "Storage_MAF": 2.54, "Reservoir": "Flaming Gorge", "Type.x": "Recorded", "Water.Year": 2026.0, "Stor_Day_Avg_10yr": 3.23, "Stor_Day_Avg_30yr": 3.19, "StorMAF_1yr_Ago": 3.44, "Max_Capacity": 3671100.0, "Max_Capacity_MAF": 3.67, "Percent_Full_MAF": 69.29, "Elevation": 6008.71, "Type.y": "Recorded", "Water_Year": 2026.0, "Elv_10yr_Average": 5894.01, "Elv_30yr_Average": 5919.56, "Elv_1yr_Ago": 6022.8, "Elv_Day_Avg_10yr": 6027.37, "Elv_Day_Avg_30yr": 6025.72 }, "geometry": { "type": "Point", "coordinates": [ -109.42, 40.91 ] } },
{ "type": "Feature", "properties": { "Date": "2026-09-13", "Storage": 280339.0, "Storage_MAF": 0.28, "Reservoir": "Fontenelle Reservoir", "Type.x": "Recorded", "Water.Year": 2026.0, "Stor_Day_Avg_10yr": 0.27, "Stor_Day_Avg_30yr": 0.27, "StorMAF_1yr_Ago": 0.25, "Max_Capacity": 345360.0, "Max_Capacity_MAF": 0.35, "Percent_Full_MAF": 81.17, "Elevation": 6498.92, "Type.y": "Recorded", "Water_Year": 2026.0, "Elv_10yr_Average": 5892.03, "Elv_30yr_Average": 5919.45, "Elv_1yr_Ago": 6492.8, "Elv_Day_Avg_10yr": 6496.35, "Elv_Day_Avg_30yr": 6496.4 }, "geometry": { "type": "Point", "coordinates": [ -110.13, 42.1 ] } },
{ "type": "Feature", "properties": { "Date": "2026-09-13", "Storage": 282670.0, "Storage_MAF": 0.28, "Reservoir": "Granby Reservoir", "Type.x": "Recorded", "Water.Year": 2026.0, "Stor_Day_Avg_10yr": 0.48, "Stor_Day_Avg_30yr": 0.45, "StorMAF_1yr_Ago": 0.28, "Max_Capacity": 539758.0, "Max_Capacity_MAF": 0.54, "Percent_Full_MAF": 52.37, "Elevation": 8239.14, "Type.y": "Recorded", "Water_Year": 2026.0, "Elv_10yr_Average": 5889.63, "Elv_30yr_Average": 5919.61, "Elv_1yr_Ago": 8269.06, "Elv_Day_Avg_10yr": 8272.13, "Elv_Day_Avg_30yr": 8266.69 }, "geometry": { "type": "Point", "coordinates": [ -105.87, 40.14 ] } },
{ "type": "Feature", "properties": { "Date": "2026-09-13", "Storage": 19571.0, "Storage_MAF": 0.02, "Reservoir": "Green Mountain Reservoir", "Type.x": "Recorded", "Water.Year": 2026.0, "Stor_Day_Avg_10yr": 0.11, "Stor_Day_Avg_30yr": 0.12, "StorMAF_1yr_Ago": 0.08, "Max_Capacity": 153639.0, "Max_Capacity_MAF": 0.15, "Percent_Full_MAF": 12.74, "Elevation": 7836.36, "Type.y": "Recorded", "Water_Year": 2026.0, "Elv_10yr_Average": 5892.53, "Elv_30yr_Average": 5919.57, "Elv_1yr_Ago": 7916.88, "Elv_Day_Avg_10yr": 7928.34, "Elv_Day_Avg_30yr": 7928.38 }, "geometry": { "type": "Point", "coordinates": [ -106.31, 39.88 ] } },
{ "type": "Feature", "properties": { "Date": "2026-09-13", "Storage": 520316.0, "Storage_MAF": 0.52, "Reservoir": "Lake Havasu", "Type.x": "Recorded", "Water.Year": 2026.0, "Stor_Day_Avg_10yr": 0.58, "Stor_Day_Avg_30yr": 0.58, "StorMAF_1yr_Ago": null, "Max_Capacity": 619400.0, "Max_Capacity_MAF": 0.62, "Percent_Full_MAF": 84.0, "Elevation": 447.41, "Type.y": "Recorded", "Water_Year": 2026.0, "Elv_10yr_Average": 5889.49, "Elv_30yr_Average": 5918.9, "Elv_1yr_Ago": 448.63, "Elv_Day_Avg_10yr": 447.94, "Elv_Day_Avg_30yr": 448.04 }, "geometry": { "type": "Point", "coordinates": [ -114.14, 34.4 ] } },
{ "type": "Feature", "properties": { "Date": "2026-09-13", "Storage": 6893940.0, "Storage_MAF": 6.89, "Reservoir": "Lake Mead", "Type.x": "Recorded", "Water.Year": 2026.0, "Stor_Day_Avg_10yr": 9.29, "Stor_Day_Avg_30yr": 13.88, "StorMAF_1yr_Ago": 9.01, "Max_Capacity": 26120000.0, "Max_Capacity_MAF": 26.12, "Percent_Full_MAF": 26.39, "Elevation": 1038.78, "Type.y": "Recorded", "Water_Year": 2026.0, "Elv_10yr_Average": 5895.12, "Elv_30yr_Average": 5919.57, "Elv_1yr_Ago": 1056.72, "Elv_Day_Avg_10yr": 1070.76, "Elv_Day_Avg_30yr": 1118.18 }, "geometry": { "type": "Point", "coordinates": [ -114.74, 36.02 ] } },
{ "type": "Feature", "properties": { "Date": "2026-09-13", "Storage": 1654470.0, "Storage_MAF": 1.65, "Reservoir": "Lake Mohave", "Type.x": "Recorded", "Water.Year": 2026.0, "Stor_Day_Avg_10yr": 1.66, "Stor_Day_Avg_30yr": 1.66, "StorMAF_1yr_Ago": 1.64, "Max_Capacity": 1809800.0, "Max_Capacity_MAF": 1.81, "Percent_Full_MAF": 91.42, "Elevation": 639.24, "Type.y": "Recorded", "Water_Year": 2026.0, "Elv_10yr_Average": 5892.09, "Elv_30yr_Average": 5919.56, "Elv_1yr_Ago": 640.4, "Elv_Day_Avg_10yr": 641.54, "Elv_Day_Avg_30yr": 641.5 }, "geometry": { "type": "Point", "coordinates": [ -114.57, 35.2 ] } },
{ "type": "Feature", "properties": { "Date": "2026-09-13", "Storage": 112098.0, "Storage_MAF": 0.11, "Reservoir": "Lake Nighthorse", "Type.x": "Recorded", "Water.Year": 2026.0, "Stor_Day_Avg_10yr": 0.11, "Stor_Day_Avg_30yr": 0.1, "StorMAF_1yr_Ago": 0.11, "Max_Capacity": 120000.0, "Max_Capacity_MAF": 0.12, "Percent_Full_MAF": 93.42, "Elevation": 6879.99, "Type.y": "Recorded", "Water_Year": 2026.0, "Elv_10yr_Average": 5894.67, "Elv_30yr_Average": 5919.65, "Elv_1yr_Ago": 6880.64, "Elv_Day_Avg_10yr": 6880.51, "Elv_Day_Avg_30yr": 6865.4 }, "geometry": { "type": "Point", "coordinates": [ -107.9, 37.22 ] } },
{ "type": "Feature", "properties": { "Date": "2026-09-13", "Storage": 5088570.0, "Storage_MAF": 5.09, "Reservoir": "Lake Powell", "Type.x": "Recorded", "Water.Year": 2026.0, "Stor_Day_Avg_10yr": 10.43, "Stor_Day_Avg_30yr": 14.2, "StorMAF_1yr_Ago": 11.38, "Max_Capacity": 24322000.0, "Max_Capacity_MAF": 24.32, "Percent_Full_MAF": 20.92, "Elevation": 3516.87, "Type.y": "Recorded", "Water_Year": 2026.0, "Elv_10yr_Average": 5894.52, "Elv_30yr_Average": 5919.56, "Elv_1yr_Ago": 3545.12, "Elv_Day_Avg_10yr": 3585.2, "Elv_Day_Avg_30yr": 3619.55 }, "geometry": { "type": "Point", "coordinates": [ -111.48, 36.94 ] } },
{ "type": "Feature", "properties": { "Date": "2026-09-13", "Storage": 160471.0, "Storage_MAF": 0.16, "Reservoir": "McPhee Reservoir", "Type.x": "Recorded", "Water.Year": 2026.0, "Stor_Day_Avg_10yr": 0.24, "Stor_Day_Avg_30yr": 0.25, "StorMAF_1yr_Ago": 0.15, "Max_Capacity": 381100.0, "Max_Capacity_MAF": 0.38, "Percent_Full_MAF": 42.11, "Elevation": 6858.86, "Type.y": "Recorded", "Water_Year": 2026.0, "Elv_10yr_Average": 5891.22, "Elv_30yr_Average": 5919.48, "Elv_1yr_Ago": 6869.03, "Elv_Day_Avg_10yr": 6885.87, "Elv_Day_Avg_30yr": 6889.77 }, "geometry": { "type": "Point", "coordinates": [ -108.57, 37.58 ] } },
{ "type": "Feature", "properties": { "Date": "2026-09-13", "Storage": 114178.0, "Storage_MAF": 0.11, "Reservoir": "Morrow Point Reservoir", "Type.x": "Recorded", "Water.Year": 2026.0, "Stor_Day_Avg_10yr": 0.11, "Stor_Day_Avg_30yr": 0.11, "StorMAF_1yr_Ago": 0.11, "Max_Capacity": 117190.0, "Max_Capacity_MAF": 0.12, "Percent_Full_MAF": 97.43, "Elevation": 7156.46, "Type.y": "Recorded", "Water_Year": 2026.0, "Elv_10yr_Average": 5894.55, "Elv_30yr_Average": 5919.61, "Elv_1yr_Ago": 7157.22, "Elv_Day_Avg_10yr": 7153.49, "Elv_Day_Avg_30yr": 7152.46 }, "geometry": { "type": "Point", "coordinates": [ -107.54, 38.45 ] } },
{ "type": "Feature", "properties": { "Date": "2026-09-13", "Storage": 777777.0, "Storage_MAF": 0.78, "Reservoir": "Navajo Reservoir", "Type.x": "Recorded", "Water.Year": 2026.0, "Stor_Day_Avg_10yr": 1.15, "Stor_Day_Avg_30yr": 1.23, "StorMAF_1yr_Ago": 1.66, "Max_Capacity": 1696000.0, "Max_Capacity_MAF": 1.7, "Percent_Full_MAF": 45.86, "Elevation": 6009.66, "Type.y": "Recorded", "Water_Year": 2026.0, "Elv_10yr_Average": 5891.85, "Elv_30yr_Average": 5919.56, "Elv_1yr_Ago": 6021.77, "Elv_Day_Avg_10yr": 6043.64, "Elv_Day_Avg_30yr": 6049.28 }, "geometry": { "type": "Point", "coordinates": [ -107.61, 36.8 ] } },
{ "type": "Feature", "properties": { "Date": "2026-09-13", "Storage": 41811.9, "Storage_MAF": 0.04, "Reservoir": "Ruedi Reservoir", "Type.x": "Recorded", "Water.Year": 2026.0, "Stor_Day_Avg_10yr": 0.08, "Stor_Day_Avg_30yr": 0.08, "StorMAF_1yr_Ago": 0.09, "Max_Capacity": 102000.0, "Max_Capacity_MAF": 0.1, "Percent_Full_MAF": 40.99, "Elevation": 7687.69, "Type.y": "Recorded", "Water_Year": 2026.0, "Elv_10yr_Average": 5897.04, "Elv_30yr_Average": 5919.88, "Elv_1yr_Ago": 7733.44, "Elv_Day_Avg_10yr": 7743.97, "Elv_Day_Avg_30yr": 7746.8 }, "geometry": { "type": "Point", "coordinates": [ -106.78, 39.36 ] } },
{ "type": "Feature", "properties": { "Date": "2026-09-12", "Storage": 87665.4, "Storage_MAF": 0.09, "Reservoir": "Starvation Reservoir", "Type.x": "Recorded", "Water.Year": 2026.0, "Stor_Day_Avg_10yr": 0.12, "Stor_Day_Avg_30yr": 0.12, "StorMAF_1yr_Ago": 0.14, "Max_Capacity": 167300.0, "Max_Capacity_MAF": 0.17, "Percent_Full_MAF": 52.4, "Elevation": 5683.56, "Type.y": "Recorded", "Water_Year": 2026.0, "Elv_10yr_Average": 5893.92, "Elv_30yr_Average": 5919.58, "Elv_1yr_Ago": 5689.9, "Elv_Day_Avg_10yr": 5697.1, "Elv_Day_Avg_30yr": 5697.12 }, "geometry": { "type": "Point", "coordinates": [ -110.45, 40.19 ] } },
{ "type": "Feature", "properties": { "Date": "2026-09-12", "Storage": 849902.0, "Storage_MAF": 0.85, "Reservoir": "Strawberry Reservoir", "Type.x": "Recorded", "Water.Year": 2026.0, "Stor_Day_Avg_10yr": 0.9, "Stor_Day_Avg_30yr": 0.89, "StorMAF_1yr_Ago": 0.96, "Max_Capacity": 1106500.0, "Max_Capacity_MAF": 1.11, "Percent_Full_MAF": 76.81, "Elevation": 7586.61, "Type.y": "Recorded", "Water_Year": 2026.0, "Elv_10yr_Average": 5892.04, "Elv_30yr_Average": 5919.59, "Elv_1yr_Ago": 7593.29, "Elv_Day_Avg_10yr": 7589.53, "Elv_Day_Avg_30yr": 7589.37 }, "geometry": { "type": "Point", "coordinates": [ -111.03, 40.14 ] } },
{ "type": "Feature", "properties": { "Date": "2026-09-13", "Storage": 50003.8, "Storage_MAF": 0.05, "Reservoir": "Taylor Park Reservoir", "Type.x": "Recorded", "Water.Year": 2026.0, "Stor_Day_Avg_10yr": 0.07, "Stor_Day_Avg_30yr": 0.07, "StorMAF_1yr_Ago": 0.08, "Max_Capacity": 106200.0, "Max_Capacity_MAF": 0.11, "Percent_Full_MAF": 47.08, "Elevation": 9296.07, "Type.y": "Recorded", "Water_Year": 2026.0, "Elv_10yr_Average": 5895.06, "Elv_30yr_Average": 5919.83, "Elv_1yr_Ago": 9307.45, "Elv_Day_Avg_10yr": 9312.48, "Elv_Day_Avg_30yr": 9312.34 }, "geometry": { "type": "Point", "coordinates": [ -106.58, 38.84 ] } },
{ "type": "Feature", "properties": { "Date": "2026-09-13", "Storage": 25949.6, "Storage_MAF": 0.03, "Reservoir": "Vallecito Reservoir", "Type.x": "Recorded", "Water.Year": 2026.0, "Stor_Day_Avg_10yr": 0.06, "Stor_Day_Avg_30yr": 0.06, "StorMAF_1yr_Ago": 0.06, "Max_Capacity": 129700.0, "Max_Capacity_MAF": 0.13, "Percent_Full_MAF": 20.01, "Elevation": 7617.55, "Type.y": "Recorded", "Water_Year": 2026.0, "Elv_10yr_Average": 5894.44, "Elv_30yr_Average": 5919.75, "Elv_1yr_Ago": 7621.87, "Elv_Day_Avg_10yr": 7637.38, "Elv_Day_Avg_30yr": 7638.12 }, "geometry": { "type": "Point", "coordinates": [ -107.57, 37.39 ] } }
]
}
