{
"type": "FeatureCollection",
"name": "Reservoir_Clip",
"crs": { "type": "name", "properties": { "name": "urn:ogc:def:crs:OGC:1.3:CRS84" } },
"features": [
{ "type": "Feature", "properties": { }, "geometry": { "type": "Polygon", "coordinates": [ [ [ -114.85233302967697, 36.022721667120493 ], [ -114.739731785243549, 36.017536142376002 ], [ -114.73359801304656, 36.011652728227865 ], [ -113.849583742532047, 35.953820018941869 ], [ -113.86147574985273, 36.613638656704808 ], [ -114.818844928682338, 36.597615741577954 ], [ -114.911352227735094, 36.520568052042172 ], [ -114.85233302967697, 36.022721667120493 ] ] ] } },
{ "type": "Feature", "properties": { }, "geometry": { "type": "Polygon", "coordinates": [ [ [ -114.554909423477199, 35.19635888610329 ], [ -114.590380524031445, 35.200398650333085 ], [ -114.686546618867453, 35.372236426351463 ], [ -114.714135252631877, 35.525156282074228 ], [ -114.755124079939009, 35.875926054221814 ], [ -114.491849689158585, 35.87750254757978 ], [ -114.600627730858278, 35.670981917686149 ], [ -114.554909423477199, 35.19635888610329 ] ] ] } },
{ "type": "Feature", "properties": { }, "geometry": { "type": "Polygon", "coordinates": [ [ [ -111.478284104570449, 36.938482577491335 ], [ -111.490797520599315, 36.934738405766169 ], [ -111.71495516993518, 37.134066284714073 ], [ -110.630820393828103, 38.106380879594226 ], [ -109.886715528868351, 37.791082208001114 ], [ -110.548842739213896, 37.053283316473227 ], [ -111.17944008240012, 36.889328007244806 ], [ -111.478284104570449, 36.938482577491335 ] ] ] } },
{ "type": "Feature", "properties": { }, "geometry": { "type": "Polygon", "coordinates": [ [ [ -114.141375509512741, 34.295392932027831 ], [ -114.139786699800425, 34.296575302046307 ], [ -114.139035402184518, 34.296636883818103 ], [ -114.138431900820919, 34.296230444124255 ], [ -114.137348061637312, 34.295614626406298 ], [ -114.089535974015291, 34.262200357030039 ], [ -114.068450375352498, 34.302597999327908 ], [ -114.368772360044929, 34.600161120643904 ], [ -114.471613918943504, 34.489240033285789 ], [ -114.318694063220846, 34.36312056464854 ], [ -114.141375509512741, 34.295392932027831 ] ] ] } },
{ "type": "Feature", "properties": { }, "geometry": { "type": "Polygon", "coordinates": [ [ [ -108.56836885281821, 37.581860191051483 ], [ -108.579207244654228, 37.577130710977585 ], [ -108.593198623206192, 37.50901306046881 ], [ -108.581637671914436, 37.471177219877625 ], [ -108.518577937595808, 37.456463281869944 ], [ -108.493354043868351, 37.459616268585876 ], [ -108.495981532798297, 37.548425394417954 ], [ -108.464451665638975, 37.608857639806644 ], [ -108.56836885281821, 37.581860191051483 ] ] ] } },
{ "type": "Feature", "properties": { }, "geometry": { "type": "Polygon", "coordinates": [ [ [ -107.88732372217693, 37.248234784171949 ], [ -107.960893412215341, 37.250074026422908 ], [ -107.962207156680307, 37.197524247824049 ], [ -107.879441255387107, 37.196473252252069 ], [ -107.88732372217693, 37.248234784171949 ] ] ] } },
{ "type": "Feature", "properties": { }, "geometry": { "type": "Polygon", "coordinates": [ [ [ -107.607496151138022, 37.397213406499723 ], [ -107.544961914605366, 37.443457211666718 ], [ -107.502659342833283, 37.393534921997805 ], [ -107.562040592649993, 37.347816614616796 ], [ -107.607496151138022, 37.397213406499723 ] ] ] } },
{ "type": "Feature", "properties": { }, "geometry": { "type": "Polygon", "coordinates": [ [ [ -107.537342196708536, 38.460820925340677 ], [ -107.546801156856333, 38.440852009473112 ], [ -107.237020212016034, 38.361239094895829 ], [ -106.942741451862403, 38.48525657238914 ], [ -107.004750190609059, 38.579846173867097 ], [ -107.310589902054431, 38.531500377556142 ], [ -107.36524167179725, 38.482103585673208 ], [ -107.537342196708536, 38.460820925340677 ] ] ] } },
{ "type": "Feature", "properties": { }, "geometry": { "type": "Polygon", "coordinates": [ [ [ -106.635850744845058, 38.817371173133949 ], [ -106.564383045950606, 38.873073938448748 ], [ -106.522868720857502, 38.83418710228559 ], [ -106.561230059234674, 38.785841305974635 ], [ -106.635850744845058, 38.817371173133949 ] ] ] } },
{ "type": "Feature", "properties": { }, "geometry": { "type": "Polygon", "coordinates": [ [ [ -106.819512221048072, 39.354495597637573 ], [ -106.81852691269934, 39.382872478080962 ], [ -106.724134372891129, 39.373413517933166 ], [ -106.733987456378415, 39.339518910736899 ], [ -106.819512221048072, 39.354495597637573 ] ] ] } },
{ "type": "Feature", "properties": { }, "geometry": { "type": "Polygon", "coordinates": [ [ [ -106.338090561859275, 39.864885322279001 ], [ -106.31641377818724, 39.905085902907125 ], [ -106.195812036302854, 39.856214608810184 ], [ -106.217488819974889, 39.815619904842563 ], [ -106.251383427171149, 39.844785031964932 ], [ -106.295919364533688, 39.860155842205103 ], [ -106.303407707984022, 39.872373665729334 ], [ -106.338090561859275, 39.864885322279001 ] ] ] } },
{ "type": "Feature", "properties": { }, "geometry": { "type": "Polygon", "coordinates": [ [ [ -105.770158829652033, 40.102935819331847 ], [ -105.743752565906107, 40.142742276620481 ], [ -105.880907488049132, 40.206590257618103 ], [ -105.923866932053699, 40.15535422348421 ], [ -105.866719047827445, 40.117518382893032 ], [ -105.770158829652033, 40.102935819331847 ] ] ] } },
{ "type": "Feature", "properties": { }, "geometry": { "type": "Polygon", "coordinates": [ [ [ -110.447220499397176, 40.189051769010717 ], [ -110.424952530715913, 40.196540112461051 ], [ -110.41963186563278, 40.226099362922916 ], [ -110.46633548136252, 40.229449411308593 ], [ -110.501215396907511, 40.198707790828259 ], [ -110.575113523062157, 40.196145989121568 ], [ -110.596790306734178, 40.138209858216321 ], [ -110.52269511890978, 40.134662748160899 ], [ -110.447023437727424, 40.147274695024628 ], [ -110.447220499397176, 40.189051769010717 ] ] ] } },
{ "type": "Feature", "properties": { }, "geometry": { "type": "Polygon", "coordinates": [ [ [ -111.195857782761209, 40.090520934137849 ], [ -110.971207479251078, 40.109438854433442 ], [ -110.979089946040901, 40.248170269934434 ], [ -111.227387649920516, 40.276547150377823 ], [ -111.195857782761209, 40.090520934137849 ] ] ] } },
{ "type": "Feature", "properties": { }, "geometry": { "type": "Polygon", "coordinates": [ [ [ -109.606390351477103, 40.685461963316982 ], [ -109.36712548752088, 40.943403840797352 ], [ -109.501915669626953, 40.978086694672605 ], [ -109.47353878918355, 41.279985172723059 ], [ -109.345842827188321, 41.497541256122346 ], [ -109.522935581066477, 41.587926875312384 ], [ -109.721048246384186, 41.458128922173202 ], [ -109.927850086209645, 40.923802825828957 ], [ -109.606390351477103, 40.685461963316982 ] ] ] } },
{ "type": "Feature", "properties": { }, "geometry": { "type": "Polygon", "coordinates": [ [ [ -110.044229384767135, 42.030921508900796 ], [ -110.103085136797858, 42.018835059823054 ], [ -110.283856375177933, 42.051415922554348 ], [ -110.541875788098352, 42.062976873846104 ], [ -110.504039947507167, 42.828101650245522 ], [ -109.631713622766071, 42.771347889358751 ], [ -110.03949990469323, 42.231136165362457 ], [ -110.044229384767135, 42.030921508900796 ] ] ] } },
{ "type": "Feature", "properties": { }, "geometry": { "type": "Polygon", "coordinates": [ [ [ -107.61248838010475, 36.808261762852979 ], [ -107.61380212456973, 36.799853798277162 ], [ -107.616166864606669, 36.78986934034338 ], [ -107.527883236560598, 36.796175313775244 ], [ -107.442227097444444, 36.817720723000775 ], [ -107.415426710359029, 36.904953355474895 ], [ -107.379692860911803, 36.919667293482576 ], [ -107.4028147634953, 36.977997547727313 ], [ -107.358672949472265, 37.004797934812728 ], [ -107.251471401130587, 36.987982005661095 ], [ -107.253573392274546, 37.022664859536341 ], [ -107.411222728071124, 37.06838316691735 ], [ -107.422258181576879, 37.026868841824253 ], [ -107.464823502241956, 37.015307890532505 ], [ -107.70077200815085, 36.960656120789686 ], [ -107.61248838010475, 36.808261762852979 ] ] ] } }
]
}
